{
  "type": "FeatureCollection",
  "features": [
    {
      "type": "Feature",
      "properties": {
        "norad_id": 31351,
        "name": "FENGYUN 1C DEB",
        "group": "fengyun-1c-debris",
        "lat": -51.864748241453505,
        "lon": -4.73257917199174,
        "alt_km": 857.7006909899428,
        "timestamp": "2025-12-23T09:49:07.365363+00:00",
        "meta_object_name": "FENGYUN 1C DEB",
        "meta_object_id": "1999-025BRF",
        "meta_epoch": "2025-12-22T10:10:17.163264",
        "meta_mean_motion": 14.06949106,
        "meta_eccentricity": 0.00933431,
        "meta_inclination": 98.7956,
        "meta_ra_of_asc_node": 342.9353,
        "meta_arg_of_pericenter": 24.2832,
        "meta_mean_anomaly": 336.2694,
        "meta_ephemeris_type": 0,
        "meta_classification_type": "U",
        "meta_norad_cat_id": 31351,
        "meta_element_set_no": 999,
        "meta_rev_at_epoch": 61511,
        "meta_bstar": 0.0002975243,
        "meta_mean_motion_dot": 4.73e-06,
        "meta_mean_motion_ddot": 0,
        "tle_line1": "1 31351U 99025BRF 25356.42380976  .00000473  00000+0  29752-3 0  9999",
        "tle_line2": "2 31351  98.7956 342.9353 0093343  24.2832 336.2694 14.06949106615118"
      },
      "geometry": {
        "type": "Point",
        "coordinates": [
          -4.73257917199174,
          -51.864748241453505
        ]
      }
    },
    {
      "type": "Feature",
      "properties": {
        "norad_id": 31353,
        "name": "FENGYUN 1C DEB",
        "group": "fengyun-1c-debris",
        "lat": -40.377704670241734,
        "lon": -69.23210008345337,
        "alt_km": 759.1854157966054,
        "timestamp": "2025-12-23T09:49:07.365374+00:00",
        "meta_object_name": "FENGYUN 1C DEB",
        "meta_object_id": "1999-025BRH",
        "meta_epoch": "2025-12-13T14:53:27.622176",
        "meta_mean_motion": 14.29852447,
        "meta_eccentricity": 0.02291816,
        "meta_inclination": 98.9913,
        "meta_ra_of_asc_node": 272.916,
        "meta_arg_of_pericenter": 64.951,
        "meta_mean_anomaly": 297.5274,
        "meta_ephemeris_type": 0,
        "meta_classification_type": "U",
        "meta_norad_cat_id": 31353,
        "meta_element_set_no": 999,
        "meta_rev_at_epoch": 96597,
        "meta_bstar": 0.00070467649,
        "meta_mean_motion_dot": 2.359e-05,
        "meta_mean_motion_ddot": 0,
        "tle_line1": "1 31353U 99025BRH 25347.62045859  .00002359  00000+0  70468-3 0  9996",
        "tle_line2": "2 31353  98.9913 272.9160 0229181  64.9510 297.5274 14.29852447965979"
      },
      "geometry": {
        "type": "Point",
        "coordinates": [
          -69.23210008345337,
          -40.377704670241734
        ]
      }
    },
    {
      "type": "Feature",
      "properties": {
        "norad_id": 31357,
        "name": "FENGYUN 1C DEB",
        "group": "fengyun-1c-debris",
        "lat": 20.79525562263042,
        "lon": -148.60244973444384,
        "alt_km": 837.6517371096306,
        "timestamp": "2025-12-23T09:49:07.365386+00:00",
        "meta_object_name": "FENGYUN 1C DEB",
        "meta_object_id": "1999-025BRM",
        "meta_epoch": "2025-12-21T20:38:37.764384",
        "meta_mean_motion": 14.18528392,
        "meta_eccentricity": 0.00488022,
        "meta_inclination": 98.6099,
        "meta_ra_of_asc_node": 26.5957,
        "meta_arg_of_pericenter": 265.7982,
        "meta_mean_anomaly": 268.0168,
        "meta_ephemeris_type": 0,
        "meta_classification_type": "U",
        "meta_norad_cat_id": 31357,
        "meta_element_set_no": 999,
        "meta_rev_at_epoch": 96833,
        "meta_bstar": 3.819742e-05,
        "meta_mean_motion_dot": 3.7e-07,
        "meta_mean_motion_ddot": 0,
        "tle_line1": "1 31357U 99025BRM 25355.86015931  .00000037  00000+0  38197-4 0  9998",
        "tle_line2": "2 31357  98.6099  26.5957 0048802 265.7982 268.0168 14.18528392968330"
      },
      "geometry": {
        "type": "Point",
        "coordinates": [
          -148.60244973444384,
          20.79525562263042
        ]
      }
    },
    {
      "type": "Feature",
      "properties": {
        "norad_id": 31358,
        "name": "FENGYUN 1C DEB",
        "group": "fengyun-1c-debris",
        "lat": 3.4034692914533577,
        "lon": -68.12310338466284,
        "alt_km": 496.65914509298636,
        "timestamp": "2025-12-23T09:49:07.365399+00:00",
        "meta_object_name": "FENGYUN 1C DEB",
        "meta_object_id": "1999-025BRN",
        "meta_epoch": "2025-12-22T06:58:35.276448",
        "meta_mean_motion": 15.21545707,
        "meta_eccentricity": 0.00436272,
        "meta_inclination": 98.9067,
        "meta_ra_of_asc_node": 291.0889,
        "meta_arg_of_pericenter": 86.5717,
        "meta_mean_anomaly": 274.0504,
        "meta_ephemeris_type": 0,
        "meta_classification_type": "U",
        "meta_norad_cat_id": 31358,
        "meta_element_set_no": 999,
        "meta_rev_at_epoch": 97715,
        "meta_bstar": 0.0089981937,
        "meta_mean_motion_dot": 0.00213617,
        "meta_mean_motion_ddot": 0,
        "tle_line1": "1 31358U 99025BRN 25356.29068607  .00213617  00000+0  89982-2 0  9991",
        "tle_line2": "2 31358  98.9067 291.0889 0043627  86.5717 274.0504 15.21545707977152"
      },
      "geometry": {
        "type": "Point",
        "coordinates": [
          -68.12310338466284,
          3.4034692914533577
        ]
      }
    },
    {
      "type": "Feature",
      "properties": {
        "norad_id": 31361,
        "name": "FENGYUN 1C DEB",
        "group": "fengyun-1c-debris",
        "lat": -80.99440569107183,
        "lon": 44.015478523289055,
        "alt_km": 860.4221743410544,
        "timestamp": "2025-12-23T09:49:07.365411+00:00",
        "meta_object_name": "FENGYUN 1C DEB",
        "meta_object_id": "1999-025BRR",
        "meta_epoch": "2025-12-20T09:23:48.416640",
        "meta_mean_motion": 14.17749362,
        "meta_eccentricity": 0.00459663,
        "meta_inclination": 98.5514,
        "meta_ra_of_asc_node": 329.4165,
        "meta_arg_of_pericenter": 49.0881,
        "meta_mean_anomaly": 311.4261,
        "meta_ephemeris_type": 0,
        "meta_classification_type": "U",
        "meta_norad_cat_id": 31361,
        "meta_element_set_no": 999,
        "meta_rev_at_epoch": 96672,
        "meta_bstar": 0.0001051526,
        "meta_mean_motion_dot": 1.75e-06,
        "meta_mean_motion_ddot": 0,
        "tle_line1": "1 31361U 99025BRR 25354.39153260  .00000175  00000+0  10515-3 0  9994",
        "tle_line2": "2 31361  98.5514 329.4165 0045966  49.0881 311.4261 14.17749362966720"
      },
      "geometry": {
        "type": "Point",
        "coordinates": [
          44.015478523289055,
          -80.99440569107183
        ]
      }
    },
    {
      "type": "Feature",
      "properties": {
        "norad_id": 31362,
        "name": "FENGYUN 1C DEB",
        "group": "fengyun-1c-debris",
        "lat": -55.91629982185142,
        "lon": 158.47108700820303,
        "alt_km": 854.9236827410068,
        "timestamp": "2025-12-23T09:49:07.365421+00:00",
        "meta_object_name": "FENGYUN 1C DEB",
        "meta_object_id": "1999-025BRS",
        "meta_epoch": "2025-12-20T19:42:50.989536",
        "meta_mean_motion": 14.17383986,
        "meta_eccentricity": 0.00192382,
        "meta_inclination": 98.6527,
        "meta_ra_of_asc_node": 348.9576,
        "meta_arg_of_pericenter": 73.5763,
        "meta_mean_anomaly": 286.7525,
        "meta_ephemeris_type": 0,
        "meta_classification_type": "U",
        "meta_norad_cat_id": 31362,
        "meta_element_set_no": 999,
        "meta_rev_at_epoch": 96690,
        "meta_bstar": 0.00012611764,
        "meta_mean_motion_dot": 2.13e-06,
        "meta_mean_motion_ddot": 0,
        "tle_line1": "1 31362U 99025BRS 25354.82142349  .00000213  00000+0  12612-3 0  9992",
        "tle_line2": "2 31362  98.6527 348.9576 0019238  73.5763 286.7525 14.17383986966905"
      },
      "geometry": {
        "type": "Point",
        "coordinates": [
          158.47108700820303,
          -55.91629982185142
        ]
      }
    },
    {
      "type": "Feature",
      "properties": {
        "norad_id": 31364,
        "name": "FENGYUN 1C DEB",
        "group": "fengyun-1c-debris",
        "lat": 23.950807046758445,
        "lon": -58.389542472617414,
        "alt_km": 788.3921797700286,
        "timestamp": "2025-12-23T09:49:07.365431+00:00",
        "meta_object_name": "FENGYUN 1C DEB",
        "meta_object_id": "1999-025BRU",
        "meta_epoch": "2025-12-22T14:25:19.608960",
        "meta_mean_motion": 14.14754235,
        "meta_eccentricity": 0.00926631,
        "meta_inclination": 99.2629,
        "meta_ra_of_asc_node": 116.6151,
        "meta_arg_of_pericenter": 121.4714,
        "meta_mean_anomaly": 239.5556,
        "meta_ephemeris_type": 0,
        "meta_classification_type": "U",
        "meta_norad_cat_id": 31364,
        "meta_element_set_no": 999,
        "meta_rev_at_epoch": 95016,
        "meta_bstar": 0.0025709802,
        "meta_mean_motion_dot": 5.119e-05,
        "meta_mean_motion_ddot": 0,
        "tle_line1": "1 31364U 99025BRU 25356.60092140  .00005119  00000+0  25710-2 0  9997",
        "tle_line2": "2 31364  99.2629 116.6151 0092663 121.4714 239.5556 14.14754235950165"
      },
      "geometry": {
        "type": "Point",
        "coordinates": [
          -58.389542472617414,
          23.950807046758445
        ]
      }
    }
  ]
}